[{"OBJECT_NAME":"STARLINK-35100","OBJECT_ID":"2025-200Y","EPOCH":"2026-03-09T22:25:40.522656","MEAN_MOTION":15.05646142,"ECCENTRICITY":0.00014193,"INCLINATION":97.6033,"RA_OF_ASC_NODE":139.9791,"ARG_OF_PERICENTER":100.2102,"MEAN_ANOMALY":259.9285,"EPHEMERIS_TYPE":0,"CLASSIFICATION_TYPE":"U","NORAD_CAT_ID":65542,"ELEMENT_SET_NO":999,"REV_AT_EPOCH":2916,"BSTAR":0.00023164554,"MEAN_MOTION_DOT":3.283e-5,"MEAN_MOTION_DDOT":0},{"OBJECT_NAME":"UNKNOWN","OBJECT_ID":"","EPOCH":"2026-02-23T08:31:05.057760","MEAN_MOTION":14.01835433,"ECCENTRICITY":0.0516167,"INCLINATION":65.5338,"RA_OF_ASC_NODE":24.2147,"ARG_OF_PERICENTER":354.4749,"MEAN_ANOMALY":5.0755,"EPHEMERIS_TYPE":0,"CLASSIFICATION_TYPE":"U","NORAD_CAT_ID":85237,"ELEMENT_SET_NO":999,"REV_AT_EPOCH":61852,"BSTAR":0.0026977,"MEAN_MOTION_DOT":0.00013478,"MEAN_MOTION_DDOT":0}]
